[Satellite]
VERSION=1.1
NAME=BEIDOU 1B
NICKNAME=BEIDOU 1B
TLE1=1 26643U 00082A   11059.75686508 -.00000160  00000-0  10000-3 0  8151
TLE2=2 26643   3.5175  70.3020 0005469 290.9129 149.8448  1.00271486 37379
